[Satellite]
VERSION=1.1
NAME=IRIDIUM 137 [+]
NICKNAME=IRIDIUM 137 [+]
TLE1=1 43076U 17083G   18020.82171529  .00000112  00000-0  20188-4 0  9992
TLE2=2 43076  86.5284 164.7259 0002549 103.1201 257.0293 14.56977291  4224
